{
    "type": "FeatureCollection",
    "features": [
        {
            "type": "Feature",
            "properties": {
                "code": "49018",
                "nom": "Baugé",
                "type": "commune-deleguee",
                "departement": "49",
                "region": "52",
                "epci": "244900882"
            },
            "geometry": {
                "type": "Polygon",
                "coordinates": [
                    [
                        [
                            -0.139,
                            47.548
                        ],
                        [
                            -0.13,
                            47.559
                        ],
                        [
                            -0.114,
                            47.56
                        ],
                        [
                            -0.09,
                            47.547
                        ],
                        [
                            -0.076,
                            47.533
                        ],
                        [
                            -0.082,
                            47.529
                        ],
                        [
                            -0.139,
                            47.548
                        ]
                    ]
                ]
            }
        },
        {
            "type": "Feature",
            "properties": {
                "code": "49031",
                "nom": "Bocé",
                "type": "commune-deleguee",
                "departement": "49",
                "region": "52",
                "epci": "244900882"
            },
            "geometry": {
                "type": "Polygon",
                "coordinates": [
                    [
                        [
                            -0.076,
                            47.533
                        ],
                        [
                            -0.039,
                            47.524
                        ],
                        [
                            -0.067,
                            47.492
                        ],
                        [
                            -0.113,
                            47.493
                        ],
                        [
                            -0.12,
                            47.503
                        ],
                        [
                            -0.082,
                            47.529
                        ],
                        [
                            -0.076,
                            47.533
                        ]
                    ]
                ]
            }
        },
        {
            "type": "Feature",
            "properties": {
                "code": "49079",
                "nom": "Chartrené",
                "type": "commune-deleguee",
                "departement": "49",
                "region": "52",
                "epci": "244900882"
            },
            "geometry": {
                "type": "Polygon",
                "coordinates": [
                    [
                        [
                            -0.14,
                            47.492
                        ],
                        [
                            -0.12,
                            47.503
                        ],
                        [
                            -0.113,
                            47.493
                        ],
                        [
                            -0.132,
                            47.479
                        ],
                        [
                            -0.14,
                            47.492
                        ]
                    ]
                ]
            }
        },
        {
            "type": "Feature",
            "properties": {
                "code": "49097",
                "nom": "Cheviré-le-Rouge",
                "type": "commune-deleguee",
                "departement": "49",
                "region": "52",
                "epci": "244900882"
            },
            "geometry": {
                "type": "Polygon",
                "coordinates": [
                    [
                        [
                            -0.104,
                            47.572
                        ],
                        [
                            -0.114,
                            47.56
                        ],
                        [
                            -0.13,
                            47.559
                        ],
                        [
                            -0.182,
                            47.575
                        ],
                        [
                            -0.201,
                            47.573
                        ],
                        [
                            -0.239,
                            47.588
                        ],
                        [
                            -0.237,
                            47.612
                        ],
                        [
                            -0.189,
                            47.617
                        ],
                        [
                            -0.171,
                            47.607
                        ],
                        [
                            -0.121,
                            47.601
                        ],
                        [
                            -0.104,
                            47.572
                        ]
                    ]
                ]
            }
        },
        {
            "type": "Feature",
            "properties": {
                "code": "49101",
                "nom": "Clefs",
                "type": "commune-deleguee",
                "departement": "49",
                "region": "52",
                "epci": "244900882"
            },
            "geometry": {
                "type": "Polygon",
                "coordinates": [
                    [
                        [
                            -0.097,
                            47.598
                        ],
                        [
                            -0.098,
                            47.6
                        ],
                        [
                            -0.1,
                            47.609
                        ],
                        [
                            -0.093,
                            47.651
                        ],
                        [
                            -0.066,
                            47.655
                        ],
                        [
                            -0.02,
                            47.637
                        ],
                        [
                            -0.039,
                            47.614
                        ],
                        [
                            -0.076,
                            47.593
                        ],
                        [
                            -0.097,
                            47.598
                        ]
                    ]
                ]
            }
        },
        {
            "type": "Feature",
            "properties": {
                "code": "49116",
                "nom": "Cuon",
                "type": "commune-deleguee",
                "departement": "49",
                "region": "52",
                "epci": "244900882"
            },
            "geometry": {
                "type": "Polygon",
                "coordinates": [
                    [
                        [
                            -0.067,
                            47.492
                        ],
                        [
                            -0.05,
                            47.47
                        ],
                        [
                            -0.086,
                            47.457
                        ],
                        [
                            -0.126,
                            47.472
                        ],
                        [
                            -0.132,
                            47.479
                        ],
                        [
                            -0.113,
                            47.493
                        ],
                        [
                            -0.067,
                            47.492
                        ]
                    ]
                ]
            }
        },
        {
            "type": "Feature",
            "properties": {
                "code": "49128",
                "nom": "Échemiré",
                "type": "commune-deleguee",
                "departement": "49",
                "region": "52",
                "epci": "244900882"
            },
            "geometry": {
                "type": "Polygon",
                "coordinates": [
                    [
                        [
                            -0.13,
                            47.559
                        ],
                        [
                            -0.139,
                            47.548
                        ],
                        [
                            -0.192,
                            47.524
                        ],
                        [
                            -0.191,
                            47.528
                        ],
                        [
                            -0.208,
                            47.548
                        ],
                        [
                            -0.201,
                            47.573
                        ],
                        [
                            -0.182,
                            47.575
                        ],
                        [
                            -0.13,
                            47.559
                        ]
                    ]
                ]
            }
        },
        {
            "type": "Feature",
            "properties": {
                "code": "49143",
                "nom": "Fougeré",
                "type": "commune-deleguee",
                "departement": "49",
                "region": "52",
                "epci": "244900882"
            },
            "geometry": {
                "type": "Polygon",
                "coordinates": [
                    [
                        [
                            -0.135,
                            47.632
                        ],
                        [
                            -0.1,
                            47.609
                        ],
                        [
                            -0.098,
                            47.6
                        ],
                        [
                            -0.121,
                            47.601
                        ],
                        [
                            -0.171,
                            47.607
                        ],
                        [
                            -0.189,
                            47.617
                        ],
                        [
                            -0.193,
                            47.648
                        ],
                        [
                            -0.159,
                            47.647
                        ],
                        [
                            -0.135,
                            47.632
                        ]
                    ]
                ]
            }
        },
        {
            "type": "Feature",
            "properties": {
                "code": "49157",
                "nom": "Le Guédeniau",
                "type": "commune-deleguee",
                "departement": "49",
                "region": "52",
                "epci": "244900882"
            },
            "geometry": {
                "type": "Polygon",
                "coordinates": [
                    [
                        [
                            -0.039,
                            47.524
                        ],
                        [
                            -0.019,
                            47.524
                        ],
                        [
                            -0.001,
                            47.517
                        ],
                        [
                            -0.021,
                            47.5
                        ],
                        [
                            -0.019,
                            47.481
                        ],
                        [
                            -0.034,
                            47.464
                        ],
                        [
                            -0.05,
                            47.47
                        ],
                        [
                            -0.05,
                            47.47
                        ],
                        [
                            -0.067,
                            47.492
                        ],
                        [
                            -0.039,
                            47.524
                        ]
                    ]
                ]
            }
        },
        {
            "type": "Feature",
            "properties": {
                "code": "49213",
                "nom": "Montpollin",
                "type": "commune-deleguee",
                "departement": "49",
                "region": "52",
                "epci": "244900882"
            },
            "geometry": {
                "type": "Polygon",
                "coordinates": [
                    [
                        [
                            -0.098,
                            47.6
                        ],
                        [
                            -0.097,
                            47.598
                        ],
                        [
                            -0.104,
                            47.572
                        ],
                        [
                            -0.121,
                            47.601
                        ],
                        [
                            -0.098,
                            47.6
                        ]
                    ]
                ]
            }
        },
        {
            "type": "Feature",
            "properties": {
                "code": "49245",
                "nom": "Pontigné",
                "type": "commune-deleguee",
                "departement": "49",
                "region": "52",
                "epci": "244900882"
            },
            "geometry": {
                "type": "Polygon",
                "coordinates": [
                    [
                        [
                            -0.019,
                            47.524
                        ],
                        [
                            -0.039,
                            47.524
                        ],
                        [
                            -0.076,
                            47.533
                        ],
                        [
                            -0.09,
                            47.547
                        ],
                        [
                            -0.058,
                            47.579
                        ],
                        [
                            -0.022,
                            47.576
                        ],
                        [
                            -0.015,
                            47.557
                        ],
                        [
                            -0.029,
                            47.541
                        ],
                        [
                            -0.019,
                            47.524
                        ]
                    ]
                ]
            }
        },
        {
            "type": "Feature",
            "properties": {
                "code": "49303",
                "nom": "Saint-Martin-d'Arcé",
                "type": "commune-deleguee",
                "departement": "49",
                "region": "52",
                "epci": "244900882"
            },
            "geometry": {
                "type": "Polygon",
                "coordinates": [
                    [
                        [
                            -0.097,
                            47.598
                        ],
                        [
                            -0.076,
                            47.593
                        ],
                        [
                            -0.058,
                            47.579
                        ],
                        [
                            -0.09,
                            47.547
                        ],
                        [
                            -0.114,
                            47.56
                        ],
                        [
                            -0.104,
                            47.572
                        ],
                        [
                            -0.097,
                            47.598
                        ]
                    ]
                ]
            }
        },
        {
            "type": "Feature",
            "properties": {
                "code": "49315",
                "nom": "Saint-Quentin-lès-Beaurepaire",
                "type": "commune-deleguee",
                "departement": "49",
                "region": "52",
                "epci": "244900882"
            },
            "geometry": {
                "type": "Polygon",
                "coordinates": [
                    [
                        [
                            -0.1,
                            47.609
                        ],
                        [
                            -0.135,
                            47.632
                        ],
                        [
                            -0.105,
                            47.657
                        ],
                        [
                            -0.093,
                            47.651
                        ],
                        [
                            -0.1,
                            47.609
                        ]
                    ]
                ]
            }
        },
        {
            "type": "Feature",
            "properties": {
                "code": "49372",
                "nom": "Le Vieil-Baugé",
                "type": "commune-deleguee",
                "departement": "49",
                "region": "52",
                "epci": "244900882"
            },
            "geometry": {
                "type": "Polygon",
                "coordinates": [
                    [
                        [
                            -0.12,
                            47.503
                        ],
                        [
                            -0.14,
                            47.492
                        ],
                        [
                            -0.174,
                            47.51
                        ],
                        [
                            -0.197,
                            47.504
                        ],
                        [
                            -0.205,
                            47.512
                        ],
                        [
                            -0.192,
                            47.524
                        ],
                        [
                            -0.139,
                            47.548
                        ],
                        [
                            -0.082,
                            47.529
                        ],
                        [
                            -0.12,
                            47.503
                        ]
                    ]
                ]
            }
        },
        {
            "type": "Feature",
            "properties": {
                "code": "49380",
                "nom": "Vaulandry",
                "type": "commune-deleguee",
                "departement": "49",
                "region": "52",
                "epci": "244900882"
            },
            "geometry": {
                "type": "Polygon",
                "coordinates": [
                    [
                        [
                            -0.022,
                            47.576
                        ],
                        [
                            -0.058,
                            47.579
                        ],
                        [
                            -0.076,
                            47.593
                        ],
                        [
                            -0.039,
                            47.614
                        ],
                        [
                            -0.02,
                            47.637
                        ],
                        [
                            0.01,
                            47.624
                        ],
                        [
                            0.001,
                            47.584
                        ],
                        [
                            -0.022,
                            47.576
                        ]
                    ]
                ]
            }
        }
    ]
}