{"type":"FeatureCollection","features":[{"type":"Feature","properties":{"nom":"Baugé-en-Anjou","code_insee":"49018"},"geometry":{"type":"Polygon","coordinates":[[[0.00992,47.62377],[0.009537,47.623403],[0.009222,47.622991],[0.009245,47.622452],[0.009455,47.622231],[0.009997,47.622017],[0.010474,47.621757],[0.010835,47.621089],[0.012117,47.61918],[0.012407,47.617116],[0.012627,47.616671],[0.014006,47.616047],[0.013978,47.615836],[0.013885,47.615522],[0.01387,47.615243],[0.013723,47.615204],[0.013563,47.615034],[0.013388,47.614775],[0.013102,47.614525],[0.011882,47.613746],[0.01106,47.613365],[0.010372,47.613119],[0.009993,47.612892],[0.00963,47.612786],[0.009257,47.612758],[0.008778,47.612615],[0.008326,47.612564],[0.008024,47.612582],[0.007838,47.612528],[0.007423,47.612312],[0.007085,47.612198],[0.006718,47.612031],[0.006423,47.611853],[0.006303,47.611733],[0.006106,47.611624],[0.005457,47.611336],[0.005161,47.611174],[0.004836,47.611094],[0.005358,47.610425],[0.005665,47.610065],[0.005972,47.609812],[0.006336,47.609575],[0.007603,47.608817],[0.007268,47.608375],[0.006043,47.607451],[0.005983,47.607314],[0.00647,47.606829],[0.006619,47.606472],[0.005501,47.60618],[0.005082,47.603607],[0.004729,47.602565],[0.003974,47.60156],[0.003012,47.600731],[0.002353,47.600582],[0.001547,47.599262],[0.001364,47.598898],[0.001767,47.598816],[0.002037,47.598731],[0.00331,47.598487],[0.004188,47.59819],[0.003888,47.597464],[0.003117,47.596819],[0.002934,47.596455],[0.003091,47.595918],[0.003059,47.595245],[0.001875,47.594685],[0.001852,47.594624],[0.002338,47.593881],[0.002892,47.593085],[0.004371,47.59071],[0.003546,47.588594],[0.003322,47.588104],[0.002357,47.588116],[0.001963,47.587991],[0.001611,47.585843],[0.001528,47.585521],[0.001432,47.584596],[0.001277,47.58376],[6.7e-05,47.584448],[-0.003741,47.586193],[-0.004101,47.586367],[-0.004535,47.586541],[-0.005565,47.586806],[-0.00626,47.586969],[-0.006245,47.5872],[-0.006329,47.587464],[-0.006429,47.587591],[-0.00661,47.587685],[-0.006838,47.587704],[-0.007585,47.587673],[-0.009086,47.587537],[-0.011395,47.587352],[-0.011955,47.586826],[-0.013133,47.58575],[-0.013095,47.5852],[-0.013222,47.584782],[-0.014258,47.583577],[-0.014816,47.583037],[-0.01638,47.58176],[-0.016817,47.581547],[-0.019641,47.579839],[-0.019883,47.579688],[-0.022034,47.578672],[-0.022189,47.57648],[-0.022175,47.576152],[-0.02201,47.573674],[-0.022185,47.57315],[-0.022977,47.572178],[-0.023824,47.571394],[-0.024154,47.571051],[-0.025474,47.567862],[-0.02551,47.567514],[-0.025858,47.567151],[-0.025511,47.564692],[-0.024694,47.564149],[-0.024238,47.563765],[-0.023721,47.563119],[-0.021227,47.561939],[-0.020148,47.563154],[-0.019598,47.562901],[-0.018512,47.562319],[-0.018055,47.562095],[-0.017517,47.561909],[-0.01672,47.561713],[-0.016018,47.562286],[-0.014547,47.561667],[-0.014982,47.560941],[-0.014987,47.558502],[-0.014869,47.558414],[-0.014728,47.558393],[-0.014907,47.557527],[-0.015188,47.556803],[-0.015707,47.55686],[-0.018174,47.554642],[-0.018451,47.554312],[-0.018715,47.553944],[-0.018968,47.55354],[-0.019075,47.55318],[-0.019207,47.553004],[-0.019489,47.552764],[-0.019509,47.552692],[-0.019716,47.5527],[-0.020104,47.552809],[-0.020596,47.552497],[-0.021728,47.550677],[-0.022769,47.549297],[-0.023223,47.548797],[-0.023997,47.548531],[-0.024288,47.548419],[-0.024714,47.548189],[-0.025557,47.547432],[-0.026135,47.546832],[-0.02666,47.546195],[-0.027038,47.54581],[-0.027143,47.545679],[-0.027745,47.544561],[-0.028079,47.543006],[-0.028823,47.541821],[-0.029198,47.541273],[-0.029129,47.54123],[-0.027955,47.54094],[-0.026213,47.540672],[-0.025891,47.540652],[-0.025615,47.54059],[-0.025402,47.540492],[-0.025107,47.540145],[-0.024896,47.54003],[-0.024411,47.539559],[-0.024236,47.539076],[-0.023982,47.538972],[-0.023527,47.538981],[-0.022436,47.538649],[-0.022159,47.538303],[-0.02155,47.537884],[-0.021195,47.537911],[-0.020927,47.537815],[-0.020325,47.537962],[-0.019837,47.53785],[-0.019479,47.537836],[-0.01926,47.537855],[-0.01882,47.537792],[-0.018403,47.537783],[-0.017856,47.537742],[-0.017387,47.537609],[-0.016886,47.536711],[-0.016786,47.535878],[-0.016896,47.535427],[-0.016911,47.535239],[-0.017025,47.534695],[-0.016897,47.53434],[-0.016538,47.533964],[-0.016256,47.533714],[-0.016056,47.533413],[-0.015992,47.533053],[-0.016335,47.532497],[-0.016469,47.530692],[-0.016501,47.529762],[-0.016733,47.528896],[-0.017534,47.527785],[-0.018409,47.527133],[-0.018864,47.526867],[-0.019082,47.526629],[-0.019494,47.526272],[-0.019359,47.52587],[-0.020219,47.525799],[-0.020115,47.525671],[-0.019795,47.525473],[-0.019359,47.525168],[-0.019185,47.524989],[-0.019053,47.524775],[-0.018949,47.524499],[-0.018854,47.524332],[-0.018781,47.524044],[-0.018632,47.523593],[-0.016516,47.523226],[-0.014649,47.522917],[-0.01404,47.522545],[-0.013227,47.522017],[-0.012184,47.521021],[-0.011603,47.520506],[-0.010894,47.519931],[-0.010397,47.519415],[-0.010158,47.519113],[-0.010014,47.518852],[-0.009927,47.518602],[-0.009784,47.517968],[-0.009642,47.517713],[-0.009786,47.517694],[-0.009601,47.517534],[-0.008583,47.516912],[-0.007749,47.516633],[-0.007155,47.516511],[-0.006701,47.516478],[-0.005826,47.51652],[-0.005186,47.516702],[-0.000649,47.516752],[-0.000814,47.516606],[-0.001469,47.516197],[-0.002006,47.515878],[-0.002895,47.515367],[-0.003562,47.514963],[-0.003808,47.514791],[-0.005204,47.513476],[-0.005322,47.513315],[-0.005417,47.513079],[-0.005752,47.512408],[-0.005811,47.511948],[-0.005858,47.511243],[-0.005926,47.510967],[-0.006172,47.510613],[-0.006524,47.510147],[-0.006658,47.509939],[-0.007024,47.50904],[-0.007235,47.508797],[-0.007545,47.508526],[-0.008187,47.508023],[-0.009054,47.507289],[-0.009379,47.506953],[-0.009759,47.506526],[-0.010034,47.506288],[-0.010339,47.506057],[-0.011055,47.505558],[-0.012747,47.504334],[-0.013073,47.504113],[-0.013371,47.50394],[-0.015168,47.502928],[-0.015574,47.502727],[-0.015872,47.502666],[-0.015989,47.5025],[-0.016132,47.502413],[-0.016707,47.502165],[-0.017223,47.50198],[-0.017396,47.501957],[-0.018056,47.501811],[-0.018655,47.501627],[-0.018968,47.501461],[-0.019334,47.501209],[-0.01975,47.500872],[-0.02001,47.500769],[-0.020186,47.500755],[-0.021023,47.500564],[-0.021487,47.500392],[-0.021595,47.500282],[-0.021665,47.499999],[-0.021998,47.499276],[-0.022086,47.498976],[-0.022239,47.498597],[-0.02251,47.498008],[-0.022614,47.497835],[-0.022995,47.497294],[-0.023335,47.49688],[-0.023886,47.496359],[-0.024209,47.496085],[-0.024547,47.495897],[-0.025137,47.495719],[-0.025651,47.495495],[-0.026141,47.495252],[-0.026779,47.495038],[-0.026951,47.494961],[-0.027944,47.494394],[-0.027405,47.493966],[-0.02702,47.493708],[-0.026704,47.493569],[-0.02638,47.493364],[-0.026113,47.493141],[-0.025605,47.492634],[-0.025196,47.492346],[-0.024944,47.49221],[-0.023657,47.49161],[-0.023164,47.491399],[-0.021829,47.490779],[-0.021436,47.490581],[-0.020846,47.490255],[-0.020245,47.48984],[-0.02002,47.489713],[-0.019387,47.489471],[-0.018455,47.489148],[-0.01778,47.488891],[-0.017094,47.488611],[-0.015797,47.487965],[-0.015185,47.487694],[-0.014617,47.487352],[-0.014076,47.486869],[-0.013536,47.486493],[-0.014911,47.485255],[-0.01559,47.484526],[-0.016341,47.483735],[-0.017482,47.482635],[-0.018288,47.481722],[-0.018647,47.481453],[-0.019053,47.480875],[-0.019494,47.480306],[-0.019973,47.479789],[-0.020518,47.479257],[-0.02115,47.478614],[-0.022105,47.477714],[-0.022441,47.477357],[-0.022981,47.476868],[-0.023614,47.476228],[-0.02399,47.475827],[-0.024398,47.475303],[-0.024751,47.474886],[-0.024997,47.474534],[-0.025649,47.473672],[-0.026122,47.473395],[-0.026607,47.473212],[-0.027594,47.472951],[-0.028859,47.472567],[-0.02964,47.472296],[-0.030873,47.472011],[-0.031473,47.471853],[-0.031949,47.471633],[-0.032165,47.471485],[-0.032663,47.471193],[-0.033334,47.470826],[-0.033935,47.470547],[-0.034162,47.470383],[-0.034504,47.47007],[-0.034794,47.469628],[-0.034846,47.469509],[-0.034509,47.469491],[-0.034189,47.469411],[-0.034039,47.469337],[-0.033533,47.468895],[-0.03265,47.468078],[-0.031935,47.467471],[-0.031272,47.467111],[-0.031245,47.466923],[-0.031016,47.466512],[-0.031731,47.466193],[-0.032552,47.465806],[-0.032673,47.465672],[-0.033047,47.464957],[-0.033063,47.464838],[-0.032274,47.464709],[-0.032766,47.464155],[-0.03296,47.463842],[-0.0333,47.464076],[-0.033771,47.46395],[-0.033707,47.464142],[-0.035175,47.465195],[-0.03533,47.465506],[-0.035309,47.465699],[-0.035501,47.46585],[-0.03579,47.465712],[-0.036453,47.465288],[-0.036862,47.465097],[-0.037273,47.464875],[-0.03751,47.464932],[-0.037729,47.464928],[-0.038164,47.464788],[-0.038567,47.464584],[-0.038749,47.464762],[-0.038794,47.464959],[-0.039401,47.464726],[-0.040987,47.467464],[-0.042629,47.46781],[-0.041618,47.468994],[-0.042094,47.468987],[-0.042913,47.468998],[-0.044843,47.469053],[-0.045303,47.469082],[-0.045768,47.469131],[-0.047332,47.469353],[-0.048313,47.469487],[-0.048805,47.469578],[-0.049626,47.469806],[-0.050587,47.470056],[-0.051012,47.470146],[-0.051518,47.470208],[-0.051894,47.470232],[-0.052371,47.470235],[-0.053837,47.470203],[-0.05532,47.47015],[-0.059346,47.469993],[-0.060139,47.469981],[-0.060903,47.470015],[-0.062759,47.470112],[-0.063454,47.470163],[-0.063968,47.470229],[-0.064454,47.470359],[-0.065349,47.470662],[-0.067301,47.471336],[-0.068245,47.471671],[-0.068435,47.471725],[-0.06885,47.471779],[-0.06926,47.471746],[-0.069542,47.47167],[-0.070129,47.471389],[-0.071012,47.470893],[-0.072669,47.469978],[-0.07346,47.469525],[-0.074113,47.469164],[-0.0793,47.466279],[-0.082413,47.464554],[-0.082692,47.464405],[-0.083076,47.464246],[-0.083519,47.464142],[-0.083755,47.464107],[-0.084489,47.464072],[-0.085523,47.46412],[-0.085507,47.463964],[-0.085399,47.46374],[-0.08541,47.463641],[-0.085569,47.463008],[-0.08548,47.462129],[-0.08534,47.461255],[-0.08516,47.460065],[-0.085062,47.459869],[-0.084743,47.459883],[-0.084746,47.459325],[-0.08469,47.459048],[-0.084541,47.45864],[-0.084367,47.458225],[-0.084411,47.458193],[-0.084837,47.458101],[-0.085971,47.457917],[-0.085774,47.457416],[-0.086375,47.457339],[-0.08693,47.458302],[-0.087133,47.458616],[-0.087359,47.458873],[-0.087636,47.459146],[-0.087903,47.459357],[-0.088601,47.459791],[-0.089112,47.460084],[-0.089743,47.460427],[-0.090114,47.460642],[-0.090724,47.461133],[-0.091387,47.461647],[-0.09176,47.462062],[-0.091963,47.462326],[-0.092547,47.462024],[-0.09294,47.461791],[-0.093646,47.461269],[-0.094053,47.461002],[-0.094561,47.460757],[-0.095576,47.460344],[-0.096196,47.460105],[-0.098196,47.459365],[-0.098559,47.459255],[-0.098804,47.459216],[-0.101161,47.458909],[-0.101879,47.458808],[-0.102604,47.458729],[-0.102522,47.460462],[-0.10241,47.460475],[-0.102064,47.461203],[-0.101867,47.461668],[-0.101616,47.462159],[-0.101533,47.46223],[-0.101232,47.462964],[-0.10105,47.463548],[-0.10091,47.463932],[-0.100746,47.464266],[-0.100542,47.464858],[-0.100521,47.465043],[-0.100627,47.465125],[-0.101351,47.465223],[-0.102507,47.465633],[-0.104475,47.466262],[-0.105334,47.466486],[-0.105859,47.46665],[-0.105914,47.466647],[-0.106141,47.466849],[-0.106378,47.467149],[-0.106417,47.467356],[-0.106218,47.468192],[-0.106236,47.468518],[-0.106654,47.468491],[-0.106812,47.469223],[-0.107156,47.469831],[-0.107441,47.469698],[-0.108097,47.470499],[-0.108219,47.470435],[-0.112328,47.473691],[-0.11311,47.473866],[-0.113683,47.473952],[-0.114653,47.474054],[-0.11498,47.474113],[-0.11517,47.474187],[-0.11532,47.473912],[-0.118508,47.474562],[-0.121404,47.475579],[-0.121628,47.47526],[-0.12193,47.474969],[-0.122537,47.474467],[-0.123013,47.474038],[-0.123566,47.47366],[-0.124264,47.473099],[-0.124791,47.472754],[-0.125019,47.472653],[-0.125347,47.47256],[-0.125733,47.472417],[-0.12674,47.473046],[-0.122712,47.477288],[-0.124488,47.477672],[-0.125327,47.477263],[-0.125656,47.477572],[-0.12574,47.47746],[-0.126161,47.477751],[-0.127085,47.477325],[-0.128006,47.476837],[-0.129259,47.476219],[-0.12968,47.476043],[-0.12995,47.475766],[-0.13092,47.475502],[-0.131063,47.475864],[-0.131429,47.476981],[-0.131459,47.477103],[-0.131723,47.477008],[-0.131961,47.477338],[-0.132132,47.477467],[-0.132422,47.477815],[-0.132559,47.478049],[-0.132568,47.478337],[-0.13241,47.478546],[-0.132897,47.478583],[-0.137213,47.478934],[-0.138196,47.479259],[-0.13882,47.479422],[-0.13901,47.479498],[-0.139734,47.479856],[-0.140201,47.480001],[-0.140745,47.480097],[-0.141212,47.480267],[-0.141438,47.480378],[-0.14204,47.480743],[-0.142348,47.480869],[-0.142389,47.48104],[-0.142889,47.481161],[-0.143992,47.48151],[-0.144304,47.481552],[-0.144683,47.481531],[-0.145072,47.481471],[-0.145592,47.481316],[-0.145994,47.481226],[-0.146741,47.481085],[-0.147586,47.480957],[-0.147854,47.480939],[-0.149002,47.480982],[-0.149739,47.481046],[-0.150894,47.481319],[-0.151373,47.481416],[-0.151952,47.481494],[-0.151454,47.482373],[-0.151168,47.482849],[-0.150711,47.483563],[-0.1505,47.483807],[-0.150261,47.484037],[-0.149949,47.484276],[-0.149619,47.484452],[-0.148401,47.485179],[-0.146299,47.486452],[-0.144265,47.487672],[-0.143749,47.487953],[-0.143313,47.488088],[-0.142797,47.488181],[-0.141704,47.488419],[-0.141431,47.488516],[-0.14111,47.48867],[-0.139728,47.489297],[-0.139548,47.489421],[-0.138902,47.489922],[-0.138667,47.490069],[-0.137965,47.490428],[-0.137606,47.490624],[-0.137948,47.490785],[-0.138084,47.490893],[-0.139015,47.491373],[-0.139355,47.491504],[-0.139853,47.49172],[-0.140094,47.491853],[-0.141484,47.492481],[-0.141713,47.492574],[-0.141918,47.492774],[-0.142281,47.493198],[-0.142798,47.493558],[-0.143714,47.494161],[-0.144288,47.494589],[-0.144624,47.494874],[-0.144883,47.494995],[-0.14531,47.495127],[-0.145835,47.495204],[-0.145917,47.495236],[-0.146176,47.495574],[-0.147183,47.496618],[-0.147243,47.49699],[-0.147289,47.497117],[-0.147497,47.497417],[-0.147727,47.497806],[-0.147987,47.498205],[-0.148132,47.498386],[-0.148516,47.498688],[-0.14887,47.498885],[-0.149578,47.499327],[-0.150478,47.499573],[-0.150774,47.499721],[-0.15175,47.500525],[-0.152321,47.501047],[-0.152409,47.501166],[-0.152421,47.501374],[-0.152601,47.501517],[-0.152957,47.501568],[-0.153024,47.501633],[-0.15304,47.501806],[-0.153116,47.502017],[-0.153282,47.502323],[-0.153396,47.502417],[-0.153608,47.502479],[-0.154636,47.502844],[-0.15477,47.502918],[-0.154934,47.502888],[-0.155536,47.502588],[-0.155684,47.502534],[-0.156156,47.502436],[-0.15666,47.502147],[-0.157082,47.501926],[-0.157431,47.501779],[-0.157622,47.501732],[-0.157893,47.501747],[-0.158417,47.501897],[-0.158643,47.501867],[-0.158882,47.501665],[-0.159215,47.501628],[-0.15967,47.501683],[-0.160123,47.501893],[-0.160568,47.501957],[-0.160935,47.501986],[-0.161263,47.502067],[-0.161859,47.502105],[-0.162706,47.502203],[-0.162854,47.50233],[-0.162802,47.502583],[-0.162977,47.502741],[-0.164329,47.50304],[-0.166116,47.503305],[-0.165692,47.504463],[-0.16594,47.505327],[-0.166018,47.505543],[-0.166968,47.506199],[-0.166741,47.506413],[-0.165937,47.507603],[-0.166391,47.507613],[-0.167017,47.507934],[-0.167456,47.508114],[-0.168204,47.508446],[-0.168872,47.508689],[-0.169526,47.508867],[-0.170641,47.509309],[-0.1703,47.509697],[-0.169949,47.510294],[-0.170937,47.510868],[-0.172197,47.509903],[-0.172553,47.510169],[-0.173079,47.509826],[-0.173887,47.510401],[-0.174115,47.510308],[-0.174622,47.510048],[-0.174883,47.509844],[-0.175797,47.509378],[-0.176011,47.509258],[-0.176088,47.509276],[-0.176247,47.509161],[-0.176712,47.509015],[-0.17782,47.508685],[-0.178034,47.508606],[-0.178395,47.508408],[-0.178552,47.508383],[-0.178925,47.508187],[-0.179561,47.507922],[-0.179988,47.507769],[-0.18047,47.507424],[-0.181084,47.507031],[-0.181309,47.507245],[-0.181673,47.507486],[-0.1822,47.507698],[-0.182386,47.507735],[-0.18259,47.507455],[-0.182893,47.50719],[-0.183168,47.507002],[-0.18291,47.506871],[-0.183387,47.506465],[-0.18361,47.506541],[-0.184721,47.505501],[-0.184962,47.505646],[-0.185456,47.505989],[-0.185739,47.506217],[-0.185533,47.506396],[-0.185743,47.506453],[-0.186283,47.506725],[-0.186466,47.506561],[-0.18634,47.506458],[-0.186487,47.506338],[-0.186706,47.506395],[-0.187329,47.506803],[-0.188121,47.507386],[-0.188427,47.507517],[-0.188956,47.507849],[-0.189664,47.508019],[-0.189836,47.507962],[-0.190063,47.507288],[-0.191958,47.506628],[-0.193994,47.50589],[-0.194109,47.505859],[-0.195256,47.505447],[-0.195743,47.505239],[-0.196021,47.504866],[-0.196216,47.504716],[-0.197023,47.504209],[-0.197199,47.504368],[-0.197404,47.504494],[-0.197599,47.504822],[-0.198284,47.505358],[-0.198371,47.505451],[-0.198714,47.505628],[-0.198823,47.505919],[-0.199022,47.506157],[-0.198821,47.506568],[-0.198739,47.50693],[-0.198833,47.507154],[-0.199111,47.507408],[-0.199311,47.507547],[-0.199333,47.507644],[-0.199261,47.507776],[-0.199239,47.507976],[-0.198998,47.508241],[-0.198813,47.508405],[-0.198629,47.508692],[-0.198479,47.509014],[-0.198486,47.509285],[-0.19859,47.509507],[-0.199607,47.509332],[-0.199569,47.509536],[-0.199715,47.509734],[-0.200772,47.509853],[-0.200876,47.509816],[-0.20123,47.509898],[-0.201488,47.510037],[-0.201561,47.510169],[-0.203006,47.510381],[-0.202758,47.510764],[-0.203853,47.511162],[-0.204065,47.510852],[-0.205391,47.51128],[-0.204993,47.511643],[-0.204917,47.511764],[-0.204978,47.51203],[-0.20514,47.512483],[-0.203547,47.512755],[-0.202845,47.512817],[-0.202677,47.512862],[-0.202383,47.513039],[-0.201591,47.513156],[-0.201329,47.513206],[-0.200182,47.513367],[-0.199022,47.513141],[-0.198497,47.513095],[-0.198414,47.513198],[-0.198122,47.513455],[-0.197954,47.513538],[-0.197579,47.513627],[-0.197396,47.513787],[-0.197344,47.513913],[-0.196958,47.514329],[-0.196776,47.514752],[-0.196466,47.515108],[-0.196271,47.515413],[-0.195926,47.515762],[-0.195867,47.515919],[-0.19552,47.516167],[-0.19538,47.516472],[-0.194851,47.51706],[-0.194709,47.517201],[-0.194293,47.517387],[-0.193904,47.517494],[-0.193529,47.517687],[-0.193473,47.51774],[-0.19332,47.518038],[-0.193127,47.518233],[-0.192921,47.518705],[-0.192686,47.51907],[-0.192718,47.519356],[-0.192508,47.519931],[-0.192399,47.520341],[-0.192385,47.520538],[-0.192238,47.520941],[-0.192232,47.521081],[-0.191912,47.521362],[-0.191982,47.522481],[-0.19201,47.52269],[-0.191973,47.522864],[-0.191868,47.522921],[-0.191523,47.523016],[-0.1914,47.523108],[-0.191381,47.523352],[-0.19151,47.523487],[-0.19195,47.523821],[-0.19228,47.524114],[-0.19241,47.524342],[-0.192259,47.524981],[-0.192174,47.525228],[-0.191948,47.52575],[-0.191857,47.526048],[-0.191588,47.526552],[-0.191436,47.526975],[-0.191437,47.527372],[-0.191466,47.527518],[-0.191336,47.527731],[-0.191112,47.527939],[-0.190969,47.528105],[-0.190897,47.528253],[-0.190879,47.528475],[-0.190821,47.528698],[-0.190904,47.528929],[-0.190654,47.529336],[-0.190593,47.529609],[-0.190632,47.529833],[-0.190614,47.530088],[-0.190524,47.53033],[-0.190259,47.530651],[-0.189972,47.530962],[-0.189816,47.531253],[-0.18962,47.531513],[-0.18919,47.532281],[-0.189166,47.532443],[-0.189219,47.532568],[-0.189534,47.532811],[-0.189608,47.532965],[-0.189795,47.533603],[-0.189972,47.533973],[-0.190066,47.534066],[-0.190385,47.534707],[-0.190692,47.535427],[-0.190955,47.535777],[-0.191033,47.535822],[-0.191549,47.535991],[-0.192227,47.536144],[-0.192525,47.536224],[-0.192601,47.536282],[-0.192583,47.536526],[-0.192653,47.536898],[-0.19297,47.537436],[-0.194078,47.537626],[-0.194766,47.53772],[-0.195105,47.53778],[-0.19519,47.537847],[-0.195236,47.538155],[-0.19538,47.538477],[-0.195422,47.538651],[-0.19539,47.538891],[-0.195428,47.539055],[-0.195328,47.539302],[-0.195331,47.539513],[-0.195465,47.539741],[-0.195637,47.540161],[-0.19594,47.541058],[-0.196028,47.54128],[-0.196141,47.541436],[-0.196308,47.541533],[-0.196715,47.541714],[-0.196831,47.541825],[-0.197464,47.542163],[-0.197809,47.542257],[-0.197954,47.542341],[-0.198267,47.542811],[-0.198397,47.542896],[-0.198903,47.543102],[-0.199933,47.54347],[-0.200261,47.543605],[-0.200528,47.543625],[-0.2014,47.543605],[-0.201761,47.54364],[-0.2019,47.543756],[-0.202234,47.543764],[-0.202482,47.543891],[-0.202796,47.543864],[-0.203144,47.543868],[-0.203549,47.544],[-0.204011,47.544258],[-0.204688,47.544689],[-0.204884,47.545426],[-0.204983,47.545557],[-0.205459,47.545786],[-0.20565,47.545932],[-0.205994,47.546028],[-0.206598,47.545964],[-0.206728,47.546],[-0.206704,47.546564],[-0.206454,47.546687],[-0.207058,47.547237],[-0.207697,47.547728],[-0.208058,47.548107],[-0.20801,47.548209],[-0.207948,47.548537],[-0.207919,47.549274],[-0.207793,47.54973],[-0.207431,47.550767],[-0.2072,47.551465],[-0.206977,47.551913],[-0.206768,47.552182],[-0.206297,47.552988],[-0.206125,47.553236],[-0.205992,47.553315],[-0.205773,47.553803],[-0.205678,47.553937],[-0.205475,47.553876],[-0.205357,47.554053],[-0.205007,47.554458],[-0.204732,47.55509],[-0.204749,47.555235],[-0.204341,47.555641],[-0.204012,47.556174],[-0.203819,47.556553],[-0.203683,47.556766],[-0.203615,47.556975],[-0.203433,47.557346],[-0.203251,47.557547],[-0.202921,47.557824],[-0.202588,47.55804],[-0.202161,47.558213],[-0.201939,47.558119],[-0.200387,47.559105],[-0.199755,47.559571],[-0.201174,47.560583],[-0.201854,47.561111],[-0.20226,47.560803],[-0.202943,47.561188],[-0.203237,47.561469],[-0.202891,47.561627],[-0.203632,47.562337],[-0.20289,47.562692],[-0.204072,47.564163],[-0.203974,47.564512],[-0.204391,47.564971],[-0.203611,47.56524],[-0.202732,47.565576],[-0.202239,47.565888],[-0.201422,47.56596],[-0.2014,47.567259],[-0.201656,47.568046],[-0.201083,47.568905],[-0.200586,47.569368],[-0.200821,47.570149],[-0.201174,47.571282],[-0.200397,47.571979],[-0.199282,47.572733],[-0.200403,47.573224],[-0.200655,47.573495],[-0.201094,47.574221],[-0.201315,47.574387],[-0.201313,47.57447],[-0.201442,47.574563],[-0.201396,47.574748],[-0.201541,47.574987],[-0.201845,47.575237],[-0.20333,47.575869],[-0.20411,47.576048],[-0.204474,47.576233],[-0.205244,47.576846],[-0.205638,47.577111],[-0.206137,47.577528],[-0.206405,47.577726],[-0.206722,47.578003],[-0.206945,47.578261],[-0.207052,47.578521],[-0.207138,47.579051],[-0.207371,47.580675],[-0.2075,47.581823],[-0.207487,47.581999],[-0.207369,47.582187],[-0.206972,47.582625],[-0.206905,47.582749],[-0.207337,47.582923],[-0.207847,47.583164],[-0.20821,47.583315],[-0.208567,47.58351],[-0.209121,47.583851],[-0.209374,47.583963],[-0.209895,47.584155],[-0.210743,47.584448],[-0.210959,47.58449],[-0.211528,47.584842],[-0.21235,47.585067],[-0.213573,47.585432],[-0.214499,47.585668],[-0.215091,47.585897],[-0.21598,47.586194],[-0.2179,47.586711],[-0.217959,47.588684],[-0.217958,47.589669],[-0.217969,47.591034],[-0.219668,47.591195],[-0.221059,47.591342],[-0.223917,47.591547],[-0.225049,47.591621],[-0.226302,47.59173],[-0.227888,47.591856],[-0.229506,47.591963],[-0.230007,47.591925],[-0.230184,47.591849],[-0.231647,47.590881],[-0.232629,47.590257],[-0.233632,47.589586],[-0.234159,47.589261],[-0.234567,47.589074],[-0.234975,47.588921],[-0.235565,47.588723],[-0.237998,47.587959],[-0.238664,47.58776],[-0.240103,47.589345],[-0.240772,47.590114],[-0.241237,47.590693],[-0.241237,47.590959],[-0.240725,47.592624],[-0.240518,47.59392],[-0.240563,47.594991],[-0.23958,47.595179],[-0.239229,47.595196],[-0.239368,47.59599],[-0.239498,47.596488],[-0.239569,47.596587],[-0.240122,47.597919],[-0.240771,47.598033],[-0.241653,47.598574],[-0.242519,47.59943],[-0.242507,47.599501],[-0.24173,47.59984],[-0.241318,47.600058],[-0.240826,47.600348],[-0.240261,47.600714],[-0.240104,47.60088],[-0.239861,47.601218],[-0.239719,47.601374],[-0.239583,47.601425],[-0.239241,47.601474],[-0.238586,47.601963],[-0.238396,47.602293],[-0.238149,47.602466],[-0.238152,47.60257],[-0.238037,47.602672],[-0.237799,47.602754],[-0.237668,47.602871],[-0.237522,47.603129],[-0.237388,47.603269],[-0.237045,47.603545],[-0.236347,47.603937],[-0.235629,47.604368],[-0.235436,47.604449],[-0.234563,47.604679],[-0.234239,47.604852],[-0.233717,47.605248],[-0.233657,47.605444],[-0.233781,47.605711],[-0.233855,47.605758],[-0.234906,47.606077],[-0.235706,47.606287],[-0.236251,47.606566],[-0.23635,47.606772],[-0.236365,47.607233],[-0.236299,47.607508],[-0.236122,47.607887],[-0.235666,47.608702],[-0.235511,47.609154],[-0.235314,47.609345],[-0.235388,47.609393],[-0.236794,47.610664],[-0.237245,47.611097],[-0.237347,47.611242],[-0.237371,47.611557],[-0.237279,47.611962],[-0.236565,47.612057],[-0.233473,47.612034],[-0.233166,47.612327],[-0.232812,47.612562],[-0.232212,47.61284],[-0.231314,47.613231],[-0.230789,47.613567],[-0.230288,47.613737],[-0.229867,47.613844],[-0.22951,47.614003],[-0.228913,47.614356],[-0.228568,47.6145],[-0.22829,47.614551],[-0.227977,47.614536],[-0.227297,47.614392],[-0.227163,47.614294],[-0.226871,47.614266],[-0.226383,47.614169],[-0.225747,47.614253],[-0.225254,47.614353],[-0.224217,47.614665],[-0.222943,47.614995],[-0.222529,47.614997],[-0.221763,47.614658],[-0.221143,47.614295],[-0.220051,47.613874],[-0.219645,47.613737],[-0.219042,47.61342],[-0.218621,47.613112],[-0.218152,47.612715],[-0.217513,47.612193],[-0.217061,47.611879],[-0.216552,47.611649],[-0.215726,47.611311],[-0.215282,47.611185],[-0.21479,47.611128],[-0.214086,47.610955],[-0.212062,47.610645],[-0.210103,47.610168],[-0.209529,47.610089],[-0.207872,47.609997],[-0.206374,47.609834],[-0.20459,47.609819],[-0.204139,47.609675],[-0.20343,47.609651],[-0.202785,47.609658],[-0.202258,47.6097],[-0.201443,47.609816],[-0.200713,47.61002],[-0.200007,47.61024],[-0.198594,47.610913],[-0.198343,47.6111],[-0.198025,47.611407],[-0.198164,47.611503],[-0.197732,47.611877],[-0.197337,47.6123],[-0.196955,47.612574],[-0.196557,47.612763],[-0.196165,47.612824],[-0.19577,47.612818],[-0.195113,47.612765],[-0.194329,47.612683],[-0.194082,47.613157],[-0.192845,47.612761],[-0.192644,47.612886],[-0.191995,47.612849],[-0.191538,47.613507],[-0.191327,47.61345],[-0.190673,47.615022],[-0.190186,47.616339],[-0.190231,47.616767],[-0.189748,47.616844],[-0.188996,47.617104],[-0.188621,47.61718],[-0.188838,47.617417],[-0.189614,47.618366],[-0.190256,47.618738],[-0.19062,47.619606],[-0.190837,47.619609],[-0.191183,47.620311],[-0.191769,47.620958],[-0.192425,47.622256],[-0.19308,47.62314],[-0.193422,47.623046],[-0.193551,47.623208],[-0.194109,47.623649],[-0.194311,47.623757],[-0.195109,47.624141],[-0.195684,47.624483],[-0.196263,47.624875],[-0.197142,47.625577],[-0.19759,47.625773],[-0.197961,47.6259],[-0.197727,47.626371],[-0.197684,47.626773],[-0.197602,47.627087],[-0.197511,47.62732],[-0.19743,47.627821],[-0.197334,47.628159],[-0.197334,47.628354],[-0.197382,47.628533],[-0.197578,47.628761],[-0.197692,47.628952],[-0.198107,47.630236],[-0.198249,47.630727],[-0.198471,47.631308],[-0.198768,47.631841],[-0.199071,47.632266],[-0.199457,47.63288],[-0.199646,47.633286],[-0.199756,47.633632],[-0.199906,47.634535],[-0.199975,47.634733],[-0.199156,47.635914],[-0.198583,47.637219],[-0.198324,47.637953],[-0.198293,47.638167],[-0.198307,47.638473],[-0.19835,47.638701],[-0.198504,47.639138],[-0.198542,47.639321],[-0.198573,47.639833],[-0.198457,47.640082],[-0.198291,47.640209],[-0.19788,47.640366],[-0.197619,47.640536],[-0.197481,47.640737],[-0.196561,47.641629],[-0.196376,47.641858],[-0.195854,47.642955],[-0.19565,47.643295],[-0.195416,47.643794],[-0.195133,47.644121],[-0.194903,47.64443],[-0.194573,47.644819],[-0.194279,47.645081],[-0.193991,47.645426],[-0.193623,47.646581],[-0.193401,47.647074],[-0.192969,47.647893],[-0.192529,47.647712],[-0.191032,47.647693],[-0.187174,47.647316],[-0.185493,47.646945],[-0.183502,47.645999],[-0.181635,47.64532],[-0.180901,47.645222],[-0.180215,47.645206],[-0.178889,47.645121],[-0.17755,47.645181],[-0.176771,47.645191],[-0.17536,47.645071],[-0.171888,47.644803],[-0.170391,47.645054],[-0.166427,47.645699],[-0.163493,47.646069],[-0.160616,47.646396],[-0.159413,47.646451],[-0.159207,47.646509],[-0.158748,47.646842],[-0.15861,47.646677],[-0.158398,47.646641],[-0.158242,47.646555],[-0.157956,47.646191],[-0.157591,47.64603],[-0.157529,47.645832],[-0.157174,47.645689],[-0.157027,47.645487],[-0.156756,47.645388],[-0.156708,47.645275],[-0.156531,47.645193],[-0.156443,47.645007],[-0.156205,47.644928],[-0.155979,47.644737],[-0.155947,47.644666],[-0.155597,47.644382],[-0.155549,47.64426],[-0.15531,47.644186],[-0.15518,47.643993],[-0.154978,47.643957],[-0.154764,47.643654],[-0.154393,47.643568],[-0.154473,47.64335],[-0.1544,47.643299],[-0.154077,47.643303],[-0.153997,47.643225],[-0.153875,47.642898],[-0.153751,47.642822],[-0.153494,47.642744],[-0.153382,47.642643],[-0.153241,47.64242],[-0.152892,47.642219],[-0.152647,47.642113],[-0.152558,47.641975],[-0.152505,47.641689],[-0.15213,47.641318],[-0.151835,47.640954],[-0.15166,47.640811],[-0.151511,47.640595],[-0.151509,47.640425],[-0.151342,47.640205],[-0.151052,47.639915],[-0.150782,47.639607],[-0.150563,47.639299],[-0.150292,47.63904],[-0.150172,47.638773],[-0.14992,47.638346],[-0.149788,47.63821],[-0.149448,47.637949],[-0.148935,47.637251],[-0.1487,47.636908],[-0.147941,47.635908],[-0.147851,47.635767],[-0.145605,47.635936],[-0.14503,47.635632],[-0.144553,47.636103],[-0.143471,47.636118],[-0.143114,47.636677],[-0.142669,47.636528],[-0.142056,47.636103],[-0.141506,47.635578],[-0.140899,47.63528],[-0.140007,47.634861],[-0.1377,47.633822],[-0.137367,47.633595],[-0.136271,47.633075],[-0.135798,47.63273],[-0.135089,47.632481],[-0.134671,47.632423],[-0.134128,47.633209],[-0.133407,47.634561],[-0.134055,47.634979],[-0.133571,47.635314],[-0.132613,47.634865],[-0.131423,47.636053],[-0.131118,47.635984],[-0.131195,47.635816],[-0.130283,47.63567],[-0.130039,47.636474],[-0.129492,47.63635],[-0.129044,47.636322],[-0.128619,47.636339],[-0.128225,47.636377],[-0.127616,47.636715],[-0.126989,47.636864],[-0.126734,47.637202],[-0.126543,47.637123],[-0.125954,47.637414],[-0.125687,47.637522],[-0.125146,47.637327],[-0.124803,47.637188],[-0.124431,47.637],[-0.123788,47.636735],[-0.123526,47.636592],[-0.123364,47.636414],[-0.122824,47.636549],[-0.122048,47.635742],[-0.122057,47.635233],[-0.121873,47.635094],[-0.121625,47.634839],[-0.121445,47.634716],[-0.120993,47.634546],[-0.120464,47.634384],[-0.119353,47.634153],[-0.119084,47.634081],[-0.118689,47.633904],[-0.118319,47.633672],[-0.117809,47.633398],[-0.115938,47.634569],[-0.115776,47.63462],[-0.114429,47.635199],[-0.114298,47.634994],[-0.113307,47.635177],[-0.113216,47.635281],[-0.112997,47.6349],[-0.111409,47.63536],[-0.11134,47.635541],[-0.111855,47.636243],[-0.112013,47.636479],[-0.112105,47.636712],[-0.112189,47.637116],[-0.112359,47.637549],[-0.112894,47.638328],[-0.11322,47.638621],[-0.113555,47.638786],[-0.113748,47.638963],[-0.113821,47.639139],[-0.113849,47.639379],[-0.113866,47.639942],[-0.11392,47.640159],[-0.114084,47.640469],[-0.114364,47.640858],[-0.114492,47.64096],[-0.114686,47.641023],[-0.115179,47.641078],[-0.114997,47.642168],[-0.114986,47.642367],[-0.115111,47.642638],[-0.115007,47.642865],[-0.11492,47.643617],[-0.114864,47.644209],[-0.114851,47.644647],[-0.114745,47.644838],[-0.113332,47.64486],[-0.113116,47.646495],[-0.114306,47.646591],[-0.114288,47.648222],[-0.111657,47.648881],[-0.111749,47.649272],[-0.11121,47.649305],[-0.110859,47.649373],[-0.110502,47.649509],[-0.109763,47.649961],[-0.109443,47.650278],[-0.109333,47.650486],[-0.109274,47.650937],[-0.109092,47.651279],[-0.1056,47.653451],[-0.105905,47.653629],[-0.106707,47.654059],[-0.107152,47.654247],[-0.107388,47.654316],[-0.107959,47.654444],[-0.108336,47.65451],[-0.107915,47.654943],[-0.107542,47.655291],[-0.106235,47.656364],[-0.105425,47.657053],[-0.104475,47.657932],[-0.103843,47.658579],[-0.103161,47.659346],[-0.10288,47.65976],[-0.102482,47.660488],[-0.101672,47.662083],[-0.099723,47.661541],[-0.098998,47.661376],[-0.096918,47.662203],[-0.095598,47.662284],[-0.094526,47.662237],[-0.094569,47.661806],[-0.094486,47.661519],[-0.094114,47.660713],[-0.093961,47.660259],[-0.093685,47.658843],[-0.093559,47.65833],[-0.093274,47.657318],[-0.093094,47.656606],[-0.092674,47.655061],[-0.092216,47.653165],[-0.092168,47.652684],[-0.092186,47.652053],[-0.092308,47.651622],[-0.092545,47.651237],[-0.091803,47.651072],[-0.090729,47.650786],[-0.09035,47.650646],[-0.089758,47.650456],[-0.089658,47.650463],[-0.089502,47.650786],[-0.089315,47.650984],[-0.089297,47.651204],[-0.088835,47.651811],[-0.088436,47.652285],[-0.088141,47.652584],[-0.087993,47.652843],[-0.087218,47.653879],[-0.086382,47.654829],[-0.086121,47.655174],[-0.085909,47.655268],[-0.085795,47.655369],[-0.085631,47.65563],[-0.08446,47.65513],[-0.083971,47.655662],[-0.082806,47.655206],[-0.082595,47.655103],[-0.081764,47.654498],[-0.081615,47.654341],[-0.081175,47.653774],[-0.080977,47.653774],[-0.078102,47.654393],[-0.077938,47.654675],[-0.077337,47.655386],[-0.077222,47.655629],[-0.076637,47.656574],[-0.076074,47.657394],[-0.075823,47.657641],[-0.075705,47.657605],[-0.075414,47.657597],[-0.075349,47.657658],[-0.075239,47.658054],[-0.074924,47.658742],[-0.074737,47.659198],[-0.074472,47.659692],[-0.074367,47.659771],[-0.073653,47.660126],[-0.073439,47.6602],[-0.07347,47.660564],[-0.073378,47.660542],[-0.072938,47.660205],[-0.072619,47.660157],[-0.072115,47.659905],[-0.072058,47.659748],[-0.072042,47.659323],[-0.071722,47.659301],[-0.071273,47.658803],[-0.071424,47.658697],[-0.07161,47.658685],[-0.071809,47.658589],[-0.071892,47.65849],[-0.071981,47.658233],[-0.072004,47.658072],[-0.071926,47.657289],[-0.071779,47.657128],[-0.071792,47.656801],[-0.071624,47.656596],[-0.071625,47.656193],[-0.071598,47.656082],[-0.071415,47.655813],[-0.071206,47.655559],[-0.07109,47.655463],[-0.07065,47.655253],[-0.069771,47.655021],[-0.069212,47.655005],[-0.068823,47.654953],[-0.068183,47.654974],[-0.067703,47.655101],[-0.066208,47.655263],[-0.065819,47.655314],[-0.065506,47.655332],[-0.065251,47.655286],[-0.064783,47.654923],[-0.064439,47.654726],[-0.063846,47.654585],[-0.063577,47.654266],[-0.063103,47.653822],[-0.062529,47.653322],[-0.062297,47.653046],[-0.061972,47.652746],[-0.061839,47.652685],[-0.061607,47.652655],[-0.061258,47.652675],[-0.061162,47.65263],[-0.061047,47.652378],[-0.060998,47.652125],[-0.060858,47.65187],[-0.060626,47.651597],[-0.060207,47.651289],[-0.060089,47.651107],[-0.059886,47.650963],[-0.059484,47.650722],[-0.05877,47.650448],[-0.058442,47.650093],[-0.058056,47.649878],[-0.057738,47.649742],[-0.057625,47.649607],[-0.057363,47.649454],[-0.05704,47.649307],[-0.056411,47.649124],[-0.055442,47.648972],[-0.055072,47.648799],[-0.054664,47.648493],[-0.054217,47.648483],[-0.053902,47.648499],[-0.053708,47.648408],[-0.053298,47.648382],[-0.052218,47.648398],[-0.051873,47.648214],[-0.051705,47.648262],[-0.051714,47.64854],[-0.051577,47.648558],[-0.050731,47.648547],[-0.050427,47.648502],[-0.050101,47.64842],[-0.049724,47.648371],[-0.04893,47.64832],[-0.048594,47.648358],[-0.047996,47.648544],[-0.04778,47.648577],[-0.047592,47.648556],[-0.047365,47.648445],[-0.046833,47.648305],[-0.046643,47.648273],[-0.046004,47.648226],[-0.045272,47.64822],[-0.044698,47.648123],[-0.043606,47.64806],[-0.042922,47.647934],[-0.042686,47.647857],[-0.042322,47.647777],[-0.042008,47.647611],[-0.041558,47.64755],[-0.041059,47.647548],[-0.040716,47.647428],[-0.040296,47.647405],[-0.039346,47.647245],[-0.038024,47.646984],[-0.037639,47.646939],[-0.037306,47.646926],[-0.037231,47.646847],[-0.037326,47.646552],[-0.037257,47.646366],[-0.037205,47.646087],[-0.036819,47.646098],[-0.036336,47.646144],[-0.035944,47.646134],[-0.035368,47.646157],[-0.034857,47.646217],[-0.034388,47.646331],[-0.034133,47.646347],[-0.033723,47.646433],[-0.033242,47.646601],[-0.032672,47.646658],[-0.032343,47.646748],[-0.03166,47.646377],[-0.030524,47.646294],[-0.030353,47.646682],[-0.029492,47.646473],[-0.029503,47.646972],[-0.028463,47.646963],[-0.028189,47.647844],[-0.027879,47.647618],[-0.026033,47.646542],[-0.025642,47.646402],[-0.025389,47.646443],[-0.02482,47.646994],[-0.023935,47.645321],[-0.023518,47.644386],[-0.023153,47.643502],[-0.022814,47.642645],[-0.022431,47.64176],[-0.022044,47.640837],[-0.020907,47.638153],[-0.020571,47.637281],[-0.02033,47.636799],[-0.017592,47.638754],[-0.01618,47.639717],[-0.015961,47.639889],[-0.015259,47.640351],[-0.015008,47.640536],[-0.014926,47.640645],[-0.014525,47.640882],[-0.013679,47.641465],[-0.01081,47.643461],[-0.008404,47.645121],[-0.00753,47.645697],[-0.006385,47.646463],[-0.005659,47.646967],[-0.005017,47.647392],[-0.004497,47.647713],[-0.003054,47.647136],[-0.002095,47.646772],[-0.001665,47.646634],[-0.001142,47.645279],[-0.000673,47.644207],[-0.000169,47.643938],[0.000517,47.643512],[0.001525,47.643042],[0.002029,47.642751],[0.002416,47.64251],[0.003705,47.641344],[0.00464,47.64053],[0.005424,47.639866],[0.006134,47.639206],[0.007574,47.637932],[0.007995,47.637581],[0.008631,47.636945],[0.009178,47.636271],[0.009695,47.635584],[0.010263,47.634961],[0.009822,47.634436],[0.008678,47.63312],[0.008075,47.632676],[0.006012,47.630998],[0.005679,47.630666],[0.006091,47.630727],[0.012539,47.629312],[0.012965,47.62869],[0.012301,47.628677],[0.011913,47.6284],[0.011861,47.628083],[0.011326,47.628118],[0.011127,47.628114],[0.011145,47.627709],[0.010445,47.627502],[0.010195,47.627144],[0.009999,47.627223],[0.00979,47.627135],[0.009854,47.627023],[0.009643,47.626941],[0.009615,47.626809],[0.00969,47.626684],[0.009486,47.626576],[0.00931,47.626574],[0.009022,47.626462],[0.008852,47.626357],[0.008716,47.626221],[0.008695,47.626015],[0.008523,47.625905],[0.009332,47.625018],[0.009778,47.623948],[0.00992,47.62377]]]}}]}